NORAD_CAT_ID,OBJECT_NAME,OBJECT_TYPE,EPOCH,MEAN_MOTION,ECCENTRICITY,INCLINATION,RA_OF_ASC_NODE,ARG_OF_PERICENTER,MEAN_ANOMALY,BSTAR,MEAN_MOTION_DOT,MEAN_MOTION_DDOT,TLE_LINE0,TLE_LINE1,TLE_LINE2,SEMIMAJOR_AXIS,PERIOD,APOGEE,PERIGEE,DECAYED
49178.0,STARLINK-3086,PAYLOAD,2023-08-03 06:59:20,14.98336793,0.0003292,69.9998,168.2156,270.2881,89.7901,0.00013218,1.485e-05,0.0,0 STARLINK-3086,1 49178U 21082BA  23215.29120814  .00001485  00000-0  13218-3 0  9998,2 49178  69.9998 168.2156 0003292 270.2881  89.7901 14.98336793104927,6950.172,96.107,574.325,569.749,0.0
49178.0,STARLINK-3086,PAYLOAD,2023-08-04 02:12:58,14.9832445,0.0003104,70.0003,166.1959,271.939,88.1414,-8.2759e-06,-1.92e-06,0.0,0 STARLINK-3086,1 49178U 21082BA  23216.09234052 -.00000192  00000-0 -82759-5 0  9991,2 49178  70.0003 166.1959 0003104 271.9390  88.1414 14.98324450105043,6950.21,96.107,574.232,569.918,0.0
49178.0,STARLINK-3086,PAYLOAD,2023-08-05 02:14:58,14.98332978,0.0003059,70.0004,163.6714,272.4621,87.6188,-6.3105e-06,-1.68e-06,0.0,0 STARLINK-3086,1 49178U 21082BA  23217.09373556 -.00000168  00000-0 -63105-5 0  9992,2 49178  70.0004 163.6714 0003059 272.4621  87.6188 14.98332978105199,6950.184,96.107,574.175,569.923,0.0
49178.0,STARLINK-3086,PAYLOAD,2023-08-06 03:53:06,14.98337501,0.0003088,70.0003,160.9792,267.3213,92.7592,0.0001628,1.85e-05,0.0,0 STARLINK-3086,1 49178U 21082BA  23218.16188474  .00001850  00000-0  16280-3 0  9991,2 49178  70.0003 160.9792 0003088 267.3213  92.7592 14.98337501105357,6950.17,96.107,574.181,569.888,0.0
49178.0,STARLINK-3086,PAYLOAD,2023-08-06 19:54:28,14.98329557,0.0002374,70.0013,159.2979,265.8726,94.2162,-1.862e-05,-3.15e-06,0.0,0 STARLINK-3086,1 49178U 21082BA  23218.82949592 -.00000315  00000-0 -18620-4 0  9998,2 49178  70.0013 159.2979 0002374 265.8726  94.2162 14.98329557105458,6950.194,96.107,573.709,570.409,0.0
49178.0,STARLINK-3086,PAYLOAD,2023-08-07 02:19:01,14.98320976,0.0003127,70.0003,158.6231,270.1338,89.9463,-0.00012772,-1.616e-05,0.0,0 STARLINK-3086,1 49178U 21082BA  23219.09654399 -.00001616  00000-0 -12772-3 0  9992,2 49178  70.0003 158.6231 0003127 270.1338  89.9463 14.98320976105491,6950.221,96.108,574.259,569.912,0.0
49178.0,STARLINK-3086,PAYLOAD,2023-08-07 13:31:57,14.98328457,0.0003143,70.0001,157.4444,270.0653,90.0146,-5.7981e-05,-7.85e-06,0.0,0 STARLINK-3086,1 49178U 21082BA  23219.56385913 -.00000785  00000-0 -57981-4 0  9995,2 49178  70.0001 157.4444 0003143 270.0653  90.0146 14.98328457105560,6950.198,96.107,574.247,569.878,0.0
49178.0,STARLINK-3086,PAYLOAD,2023-08-07 21:32:37,14.98334542,0.0003199,70.0,156.6027,270.0877,89.9916,-2.0465e-05,-3.37e-06,0.0,0 STARLINK-3086,1 49178U 21082BA  23219.89765438 -.00000337  00000-0 -20465-4 0  9995,2 49178  70.0000 156.6027 0003199 270.0877  89.9916 14.98334542105616,6950.179,96.107,574.267,569.82,0.0
49178.0,STARLINK-3086,PAYLOAD,2023-08-08 05:33:17,14.98340861,0.0003181,70.0,155.7611,270.317,89.7625,5.8417e-05,6.04e-06,0.0,0 STARLINK-3086,1 49178U 21082BA  23220.23144797  .00000604  00000-0  58417-4 0  9997,2 49178  70.0000 155.7611 0003181 270.3170  89.7625 14.98340861105666,6950.159,96.106,574.235,569.813,0.0
49178.0,STARLINK-3086,PAYLOAD,2023-08-08 13:33:57,14.98321112,0.0003078,70.0001,154.9197,269.3465,90.7341,0.00036263,4.235e-05,0.0,0 STARLINK-3086,1 49178U 21082BA  23220.56525455  .00004235  00000-0  36263-3 0  9995,2 49178  70.0001 154.9197 0003078 269.3465  90.7341 14.98321112105718,6950.22,96.108,574.225,569.946,0.0
49178.0,STARLINK-3086,PAYLOAD,2023-08-09 02:23:02,14.98331767,0.0002913,70.0004,153.5726,265.5312,94.5515,0.00024099,2.784e-05,0.0,0 STARLINK-3086,1 49178U 21082BA  23221.09932926  .00002784  00000-0  24099-3 0  9990,2 49178  70.0004 153.5726 0002913 265.5312  94.5515 14.98331767105790,6950.187,96.107,574.077,570.028,0.0
49178.0,STARLINK-3086,PAYLOAD,2023-08-10 05:37:19,14.98329838,0.0002481,70.001,150.7113,253.7675,106.3211,1.7238e-06,-7.2e-07,0.0,0 STARLINK-3086,1 49178U 21082BA  23222.23425470 -.00000072  00000-0  17238-5 0  9996,2 49178  70.0010 150.7113 0002481 253.7675 106.3211 14.98329838105967,6950.193,96.107,573.783,570.334,0.0
49178.0,STARLINK-3086,PAYLOAD,2023-08-11 05:39:20,14.98334573,0.0002128,69.9996,148.1889,264.3334,95.7582,-1.2693e-05,-2.44e-06,0.0,0 STARLINK-3086,1 49178U 21082BA  23223.23565045 -.00000244  00000-0 -12693-4 0  9991,2 49178  69.9996 148.1889 0002128 264.3334  95.7582 14.98334573106118,6950.179,96.107,573.523,570.565,0.0
49178.0,STARLINK-3086,PAYLOAD,2023-08-11 12:03:52,14.98323088,0.0002893,69.9961,147.5137,272.6905,87.3923,0.00014798,1.673e-05,0.0,0 STARLINK-3086,1 49178U 21082BA  23223.50269424  .00001673  00000-0  14798-3 0  9995,2 49178  69.9961 147.5137 0002893 272.6905  87.3923 14.98323088106153,6950.214,96.107,574.09,570.069,0.0
49178.0,STARLINK-3086,PAYLOAD,2023-08-12 18:30:25,14.98334417,0.0003395,70.0,144.315,272.325,87.752,-2.0951e-05,-3.43e-06,0.0,0 STARLINK-3086,1 49178U 21082BA  23224.77113109 -.00000343  00000-0 -20951-4 0  9997,2 49178  70.0000 144.3150 0003395 272.3250  87.7520 14.98334417106344,6950.179,96.107,574.404,569.685,0.0
49178.0,STARLINK-3086,PAYLOAD,2023-08-14 02:33:06,14.98331685,0.0002917,70.0003,140.9491,268.9331,91.1494,7.7458e-05,8.31e-06,0.0,0 STARLINK-3086,1 49178U 21082BA  23226.10632943  .00000831  00000-0  77458-4 0  9992,2 49178  70.0003 140.9491 0002917 268.9331  91.1494 14.98331685106542,6950.188,96.107,574.08,570.025,0.0
49178.0,STARLINK-3086,PAYLOAD,2023-08-15 05:47:23,14.98333745,0.0002811,70.0006,138.0887,268.445,91.6387,4.5818e-05,4.54e-06,0.0,0 STARLINK-3086,1 49178U 21082BA  23227.24124846  .00000454  00000-0  45818-4 0  9992,2 49178  70.0006 138.0887 0002811 268.4450  91.6387 14.98333745106716,6950.181,96.107,574.0,570.093,0.0
49178.0,STARLINK-3086,PAYLOAD,2023-08-16 17:02:21,14.98329492,0.0002687,70.001,134.3849,272.1242,87.9609,4.3638e-05,4.28e-06,0.0,0 STARLINK-3086,1 49178U 21082BA  23228.70996950  .00000428  00000-0  43638-4 0  9996,2 49178  70.0010 134.3849 0002687 272.1242  87.9609 14.98329492106933,6950.194,96.107,573.927,570.192,0.0
49178.0,STARLINK-3086,PAYLOAD,2023-08-17 04:15:17,14.98339563,0.0002723,70.0011,133.2066,271.8053,88.2794,-3.5004e-05,-5.11e-06,0.0,0 STARLINK-3086,1 49178U 21082BA  23229.17728485 -.00000511  00000-0 -35004-4 0  9997,2 49178  70.0011 133.2066 0002723 271.8053  88.2794 14.98339563107008,6950.163,96.106,573.921,570.136,0.0
49178.0,STARLINK-3086,PAYLOAD,2023-08-18 02:41:10,14.98335455,0.000288,70.0,130.85,267.5425,92.5404,-3.6297e-06,-1.36e-06,0.0,0 STARLINK-3086,1 49178U 21082BA  23230.11192447 -.00000136  00000-0 -36297-5 0  9995,2 49178  70.0000 130.8500 0002880 267.5425  92.5404 14.98335455107148,6950.176,96.107,574.043,570.039,0.0
49178.0,STARLINK-3086,PAYLOAD,2023-08-18 17:06:23,14.98328903,0.000279,70.0003,129.3349,268.9919,91.092,6.514e-06,-1.5e-07,0.0,0 STARLINK-3086,1 49178U 21082BA  23230.71276875 -.00000015  00000-0  65140-5 0  9993,2 49178  70.0003 129.3349 0002790 268.9919  91.0920 14.98328903107235,6950.196,96.107,574.0,570.122,0.0
49178.0,STARLINK-3086,PAYLOAD,2023-08-19 01:07:05,14.98306211,0.0003131,70.0012,128.4937,262.3388,97.7416,-0.00025917,-3.182e-05,0.0,0 STARLINK-3086,1 49178U 21082BA  23231.04658713 -.00003182  00000-0 -25917-3 0  9990,2 49178  70.0012 128.4937 0003131 262.3388  97.7416 14.98306211107282,6950.266,96.109,574.308,569.955,0.0
49178.0,STARLINK-3086,PAYLOAD,2023-08-19 02:43:11,14.98330268,0.0003132,69.9997,128.3257,271.4592,88.6208,2.9666e-05,2.61e-06,0.0,0 STARLINK-3086,1 49178U 21082BA  23231.11332770  .00000261  00000-0  29666-4 0  9999,2 49178  69.9997 128.3257 0003132 271.4592  88.6208 14.98330268107292,6950.192,96.107,574.234,569.88,0.0
49178.0,STARLINK-3086,PAYLOAD,2023-08-20 02:45:12,14.98328108,0.0002754,70.0005,125.8002,267.0897,92.9947,5.2784e-05,5.37e-06,0.0,0 STARLINK-3086,1 49178U 21082BA  23232.11472982  .00000537  00000-0  52784-4 0  9993,2 49178  70.0005 125.8002 0002754 267.0897  92.9947 14.98328108107448,6950.199,96.107,573.978,570.15,0.0
49178.0,STARLINK-3086,PAYLOAD,2023-08-21 01:11:03,14.98349565,0.0003014,69.9996,123.4436,268.7383,91.3431,0.00027484,3.189e-05,0.0,0 STARLINK-3086,1 49178U 21082BA  23233.04934895  .00003189  00000-0  27484-3 0  9996,2 49178  69.9996 123.4436 0003014 268.7383  91.3431 14.98349565107583,6950.132,96.106,574.092,569.903,0.0
49178.0,STARLINK-3086,PAYLOAD,2023-08-21 20:24:42,14.98321992,0.000288,70.0004,121.4238,273.1466,86.9363,-6.6087e-05,-8.81e-06,0.0,0 STARLINK-3086,1 49178U 21082BA  23233.85049210 -.00000881  00000-0 -66087-4 0  9994,2 49178  70.0004 121.4238 0002880 273.1466  86.9363 14.98321992107708,6950.218,96.108,574.084,570.081,0.0
49178.0,STARLINK-3086,PAYLOAD,2023-08-22 02:49:15,14.98287625,0.0002874,69.9998,120.7505,278.0505,82.0328,0.00067399,7.949e-05,0.0,0 STARLINK-3086,1 49178U 21082BA  23234.11753891  .00007949  00000-0  67399-3 0  9997,2 49178  69.9998 120.7505 0002874 278.0505  82.0328 14.98287625107743,6950.324,96.11,574.186,570.191,0.0
49178.0,STARLINK-3086,PAYLOAD,2023-08-23 01:15:06,14.98356832,0.0002739,70.0001,118.3937,279.718,80.367,-0.00041863,-5.088e-05,0.0,0 STARLINK-3086,1 49178U 21082BA  23235.05215970 -.00005088  00000-0 -41863-3 0  9994,2 49178  70.0001 118.3937 0002739 279.7180  80.3670 14.98356832107883,6950.11,96.105,573.879,570.071,0.0
49178.0,STARLINK-3086,PAYLOAD,2023-08-23 02:51:14,14.98338845,0.0002891,70.0,118.2246,271.7702,88.3126,-8.3277e-05,-1.087e-05,0.0,0 STARLINK-3086,1 49178U 21082BA  23235.11892293 -.00001087  00000-0 -83277-4 0  9991,2 49178  70.0000 118.2246 0002891 271.7702  88.3126 14.98338845107894,6950.166,96.106,574.04,570.021,0.0
49178.0,STARLINK-3086,PAYLOAD,2023-08-24 02:53:15,14.98328794,0.0003074,69.9995,115.7001,272.2323,87.8484,0.00017573,2.004e-05,0.0,0 STARLINK-3086,1 49178U 21082BA  23236.12032297  .00002004  00000-0  17573-3 0  9996,2 49178  69.9995 115.7001 0003074 272.2323  87.8484 14.98328794108045,6950.197,96.107,574.198,569.925,0.0
